{
  "type": "FeatureCollection",
  "features": [
    {
      "type": "Feature",
      "properties": {
        "norad_id": 66661,
        "name": "SNUGLITE-III",
        "group": "last-30-days",
        "lat": -71.88981332156591,
        "lon": 80.70577467263378,
        "alt_km": 586.3508647108611,
        "timestamp": "2025-12-24T05:51:18.324565+00:00",
        "meta_object_name": "SNUGLITE-III",
        "meta_object_id": "2025-274M",
        "meta_epoch": "2025-12-23T12:38:20.828544",
        "meta_mean_motion": 14.9314866,
        "meta_eccentricity": 0.00133913,
        "meta_inclination": 97.7404,
        "meta_ra_of_asc_node": 284.5754,
        "meta_arg_of_pericenter": 242.3524,
        "meta_mean_anomaly": 117.6337,
        "meta_ephemeris_type": 0,
        "meta_classification_type": "U",
        "meta_norad_cat_id": 66661,
        "meta_element_set_no": 999,
        "meta_rev_at_epoch": 401,
        "meta_bstar": 0.00022881167,
        "meta_mean_motion_dot": 2.334e-05,
        "meta_mean_motion_ddot": 0,
        "tle_line1": "1 66661U 25274M   25357.52662996  .00002334  00000+0  22881-3 0  9997",
        "tle_line2": "2 66661  97.7404 284.5754 0013391 242.3524 117.6337 14.93148660  4017"
      },
      "geometry": {
        "type": "Point",
        "coordinates": [
          80.70577467263378,
          -71.88981332156591
        ]
      }
    },
    {
      "type": "Feature",
      "properties": {
        "norad_id": 66662,
        "name": "2025-274N",
        "group": "last-30-days",
        "lat": -76.73678900225394,
        "lon": 70.04081574041508,
        "alt_km": 586.1955118929463,
        "timestamp": "2025-12-24T05:51:18.324577+00:00",
        "meta_object_name": "2025-274N",
        "meta_object_id": "2025-274N",
        "meta_epoch": "2025-12-23T17:26:22.135776",
        "meta_mean_motion": 14.93205147,
        "meta_eccentricity": 0.00138409,
        "meta_inclination": 97.7405,
        "meta_ra_of_asc_node": 284.7751,
        "meta_arg_of_pericenter": 241.2847,
        "meta_mean_anomaly": 118.6982,
        "meta_ephemeris_type": 0,
        "meta_classification_type": "U",
        "meta_norad_cat_id": 66662,
        "meta_element_set_no": 999,
        "meta_rev_at_epoch": 404,
        "meta_bstar": 0.0002372881,
        "meta_mean_motion_dot": 2.426e-05,
        "meta_mean_motion_ddot": 0,
        "tle_line1": "1 66662U 25274N   25357.72664509  .00002426  00000+0  23729-3 0  9996",
        "tle_line2": "2 66662  97.7405 284.7751 0013840 241.2847 118.6982 14.93205147  4047"
      },
      "geometry": {
        "type": "Point",
        "coordinates": [
          70.04081574041508,
          -76.73678900225394
        ]
      }
    },
    {
      "type": "Feature",
      "properties": {
        "norad_id": 66663,
        "name": "KSLV-II R/B",
        "group": "last-30-days",
        "lat": -42.28338342008009,
        "lon": -67.41061797792158,
        "alt_km": 548.0536612370179,
        "timestamp": "2025-12-24T05:51:18.324587+00:00",
        "meta_object_name": "KSLV-II R/B",
        "meta_object_id": "2025-274P",
        "meta_epoch": "2025-12-23T05:59:25.426176",
        "meta_mean_motion": 14.97536982,
        "meta_eccentricity": 0.00600006,
        "meta_inclination": 97.7435,
        "meta_ra_of_asc_node": 284.4956,
        "meta_arg_of_pericenter": 282.7951,
        "meta_mean_anomaly": 76.657,
        "meta_ephemeris_type": 0,
        "meta_classification_type": "U",
        "meta_norad_cat_id": 66663,
        "meta_element_set_no": 999,
        "meta_rev_at_epoch": 398,
        "meta_bstar": 0.0011394408,
        "meta_mean_motion_dot": 0.00013749,
        "meta_mean_motion_ddot": 0,
        "tle_line1": "1 66663U 25274P   25357.24959984  .00013749  00000+0  11394-2 0  9992",
        "tle_line2": "2 66663  97.7435 284.4956 0060000 282.7951  76.6570 14.97536982  3987"
      },
      "geometry": {
        "type": "Point",
        "coordinates": [
          -67.41061797792158,
          -42.28338342008009
        ]
      }
    },
    {
      "type": "Feature",
      "properties": {
        "norad_id": 66664,
        "name": "SOYUZ-MS 28",
        "group": "last-30-days",
        "lat": 7.249767886902393,
        "lon": -100.27918525350121,
        "alt_km": 418.31626214199696,
        "timestamp": "2025-12-24T05:51:18.324597+00:00",
        "meta_object_name": "SOYUZ-MS 28",
        "meta_object_id": "2025-275A",
        "meta_epoch": "2025-12-23T18:17:18.636000",
        "meta_mean_motion": 15.49761422,
        "meta_eccentricity": 0.00031718,
        "meta_inclination": 51.6321,
        "meta_ra_of_asc_node": 87.8933,
        "meta_arg_of_pericenter": 292.1344,
        "meta_mean_anomaly": 67.9308,
        "meta_ephemeris_type": 0,
        "meta_classification_type": "U",
        "meta_norad_cat_id": 66664,
        "meta_element_set_no": 999,
        "meta_rev_at_epoch": 128,
        "meta_bstar": 0.00020966669,
        "meta_mean_motion_dot": 0.00011429,
        "meta_mean_motion_ddot": 0,
        "tle_line1": "1 66664U 25275A   25357.76202125  .00011429  00000+0  20967-3 0  9999",
        "tle_line2": "2 66664  51.6321  87.8933 0003171 292.1344  67.9308 15.49761422  1288"
      },
      "geometry": {
        "type": "Point",
        "coordinates": [
          -100.27918525350121,
          7.249767886902393
        ]
      }
    },
    {
      "type": "Feature",
      "properties": {
        "norad_id": 66666,
        "name": "FORMOSAT-8A",
        "group": "last-30-days",
        "lat": 57.9191301931919,
        "lon": 57.62234155317748,
        "alt_km": 562.0128717883126,
        "timestamp": "2025-12-24T05:51:18.324608+00:00",
        "meta_object_name": "FORMOSAT-8A",
        "meta_object_id": "2025-276A",
        "meta_epoch": "2025-12-23T21:35:27.021120",
        "meta_mean_motion": 15.00348817,
        "meta_eccentricity": 0.00039422,
        "meta_inclination": 97.6576,
        "meta_ra_of_asc_node": 69.6778,
        "meta_arg_of_pericenter": 189.9266,
        "meta_mean_anomaly": 170.188,
        "meta_ephemeris_type": 0,
        "meta_classification_type": "U",
        "meta_norad_cat_id": 66666,
        "meta_element_set_no": 999,
        "meta_rev_at_epoch": 376,
        "meta_bstar": 0.00036077649,
        "meta_mean_motion_dot": 4.47e-05,
        "meta_mean_motion_ddot": 0,
        "tle_line1": "1 66666U 25276A   25357.89961830  .00004470  00000+0  36078-3 0  9999",
        "tle_line2": "2 66666  97.6576  69.6778 0003942 189.9266 170.1880 15.00348817  3762"
      },
      "geometry": {
        "type": "Point",
        "coordinates": [
          57.62234155317748,
          57.9191301931919
        ]
      }
    },
    {
      "type": "Feature",
      "properties": {
        "norad_id": 66667,
        "name": "PELICAN-5",
        "group": "last-30-days",
        "lat": -11.294266957478094,
        "lon": -111.67649619037198,
        "alt_km": 516.0410773661915,
        "timestamp": "2025-12-24T05:51:18.324618+00:00",
        "meta_object_name": "PELICAN-5",
        "meta_object_id": "2025-276B",
        "meta_epoch": "2025-12-23T22:41:06.100800",
        "meta_mean_motion": 15.17608771,
        "meta_eccentricity": 0.00022015,
        "meta_inclination": 97.4413,
        "meta_ra_of_asc_node": 69.5257,
        "meta_arg_of_pericenter": 210.3972,
        "meta_mean_anomaly": 149.7134,
        "meta_ephemeris_type": 0,
        "meta_classification_type": "U",
        "meta_norad_cat_id": 66667,
        "meta_element_set_no": 999,
        "meta_rev_at_epoch": 382,
        "meta_bstar": 0.00042183343,
        "meta_mean_motion_dot": 8.418e-05,
        "meta_mean_motion_ddot": 0,
        "tle_line1": "1 66667U 25276B   25357.94520950  .00008418  00000+0  42183-3 0  9990",
        "tle_line2": "2 66667  97.4413  69.5257 0002201 210.3972 149.7134 15.17608771  3829"
      },
      "geometry": {
        "type": "Point",
        "coordinates": [
          -111.67649619037198,
          -11.294266957478094
        ]
      }
    },
    {
      "type": "Feature",
      "properties": {
        "norad_id": 66668,
        "name": "TRANSPORTER-15C",
        "group": "last-30-days",
        "lat": 19.201765434791596,
        "lon": -107.62950593343747,
        "alt_km": 489.997802072583,
        "timestamp": "2025-12-24T05:51:18.324629+00:00",
        "meta_object_name": "TRANSPORTER-15C",
        "meta_object_id": "2025-276C",
        "meta_epoch": "2025-12-22T16:55:56.699040",
        "meta_mean_motion": 15.2172719,
        "meta_eccentricity": 0.00267972,
        "meta_inclination": 97.4316,
        "meta_ra_of_asc_node": 68.2383,
        "meta_arg_of_pericenter": 290.281,
        "meta_mean_anomaly": 69.5546,
        "meta_ephemeris_type": 0,
        "meta_classification_type": "U",
        "meta_norad_cat_id": 66668,
        "meta_element_set_no": 999,
        "meta_rev_at_epoch": 363,
        "meta_bstar": 0.088401316,
        "meta_mean_motion_dot": 0.02259996,
        "meta_mean_motion_ddot": 0,
        "tle_line1": "1 66668U 25276C   25356.70551735  .02259996  00000+0  88401-1 0  9991",
        "tle_line2": "2 66668  97.4316  68.2383 0026797 290.2810  69.5546 15.21727190  3639"
      },
      "geometry": {
        "type": "Point",
        "coordinates": [
          -107.62950593343747,
          19.201765434791596
        ]
      }
    }
  ]
}